{
  "norad_id": 49424,
  "name": "STARLINK-3135",
  "history": [
    {
      "epoch": "2026-03-28T10:27:32.051232Z",
      "apogee_km": 540.6709877537041,
      "perigee_km": 538.8301378732394,
      "latitude_deg": -2.869938146310957e-05,
      "longitude_deg": 162.2264642264044,
      "height_km": 540.6965963772409,
      "semi_major_axis_km": 6917.887562813471,
      "eccentricity": 0.00013305,
      "inclination_deg": 53.2157,
      "raan_deg": 144.9663,
      "arg_perigee_deg": 93.1428,
      "mean_anomaly_deg": 266.9716,
      "mean_motion_rev_day": 15.08837653
    },
    {
      "epoch": "2026-03-29T03:56:46.535136Z",
      "apogee_km": 540.6735073949585,
      "perigee_km": 538.8222813972188,
      "latitude_deg": -1.1319798177911821e-05,
      "longitude_deg": -104.07305280476557,
      "height_km": 540.7022787407058,
      "semi_major_axis_km": 6917.884894396088,
      "eccentricity": 0.0001338,
      "inclination_deg": 53.2159,
      "raan_deg": 141.6953,
      "arg_perigee_deg": 93.6424,
      "mean_anomaly_deg": 266.4721,
      "mean_motion_rev_day": 15.08838526
    },
    {
      "epoch": "2026-03-30T03:47:33.754848Z",
      "apogee_km": 540.5904919212226,
      "perigee_km": 538.9205126711686,
      "latitude_deg": -3.22457665538705e-05,
      "longitude_deg": -107.20855545607597,
      "height_km": 540.6367512606167,
      "semi_major_axis_km": 6917.892502296195,
      "eccentricity": 0.0001207,
      "inclination_deg": 53.2161,
      "raan_deg": 137.2359,
      "arg_perigee_deg": 89.0027,
      "mean_anomaly_deg": 271.1103,
      "mean_motion_rev_day": 15.08836037
    },
    {
      "epoch": "2026-03-30T13:19:52.403232Z",
      "apogee_km": 540.5770132226826,
      "perigee_km": 538.9151993428923,
      "latitude_deg": 2.6354851692852466e-05,
      "longitude_deg": 107.53785414890129,
      "height_km": 540.6157749512784,
      "semi_major_axis_km": 6917.883106282788,
      "eccentricity": 0.00012011,
      "inclination_deg": 53.2159,
      "raan_deg": 135.4517,
      "arg_perigee_deg": 88.2004,
      "mean_anomaly_deg": 271.9126,
      "mean_motion_rev_day": 15.08839111
    },
    {
      "epoch": "2026-03-30T19:41:24.951552Z",
      "apogee_km": 540.5657957326421,
      "perigee_km": 538.9247357015693,
      "latitude_deg": 9.445414652752427e-06,
      "longitude_deg": 10.701467339693718,
      "height_km": 540.6047583639613,
      "semi_major_axis_km": 6917.882265717106,
      "eccentricity": 0.00011861,
      "inclination_deg": 53.2156,
      "raan_deg": 134.2621,
      "arg_perigee_deg": 87.4671,
      "mean_anomaly_deg": 272.6457,
      "mean_motion_rev_day": 15.08839386
    },
    {
      "epoch": "2026-03-31T13:10:39.631584Z",
      "apogee_km": 540.614563184583,
      "perigee_km": 538.8740242510848,
      "latitude_deg": -1.9856245558944375e-05,
      "longitude_deg": 104.40149727530027,
      "height_km": 540.6253505266315,
      "semi_major_axis_km": 6917.881293717834,
      "eccentricity": 0.0001258,
      "inclination_deg": 53.2161,
      "raan_deg": 130.9915,
      "arg_perigee_deg": 89.0351,
      "mean_anomaly_deg": 271.0785,
      "mean_motion_rev_day": 15.08839704
    },
    {
      "epoch": "2026-04-01T19:22:59.785824Z",
      "apogee_km": 540.6318262699933,
      "perigee_km": 538.8815991606762,
      "latitude_deg": 6.248438529348338e-06,
      "longitude_deg": 4.4269424675112585,
      "height_km": 540.6926605238533,
      "semi_major_axis_km": 6917.893712715335,
      "eccentricity": 0.0001265,
      "inclination_deg": 53.2157,
      "raan_deg": 125.3414,
      "arg_perigee_deg": 92.639,
      "mean_anomaly_deg": 267.4747,
      "mean_motion_rev_day": 15.08835641
    },
    {
      "epoch": "2026-04-02T19:13:46.440480Z",
      "apogee_km": 540.5962405736373,
      "perigee_km": 538.883097595306,
      "latitude_deg": 1.360041947784515e-05,
      "longitude_deg": 1.2922218777953067,
      "height_km": 540.6791552369854,
      "semi_major_axis_km": 6917.876669084471,
      "eccentricity": 0.00012382,
      "inclination_deg": 53.2163,
      "raan_deg": 120.8804,
      "arg_perigee_deg": 92.9263,
      "mean_anomaly_deg": 267.1871,
      "mean_motion_rev_day": 15.08841217
    },
    {
      "epoch": "2026-04-03T07:56:51.151776Z",
      "apogee_km": 540.5564715911933,
      "perigee_km": 538.8948009859578,
      "latitude_deg": 3.4875717445715766e-05,
      "longitude_deg": 167.6213987223473,
      "height_km": 540.6648558898893,
      "semi_major_axis_km": 6917.862636288575,
      "eccentricity": 0.0001201,
      "inclination_deg": 53.2163,
      "raan_deg": 118.5015,
      "arg_perigee_deg": 92.9952,
      "mean_anomaly_deg": 267.1178,
      "mean_motion_rev_day": 15.08845808
    },
    {
      "epoch": "2026-04-04T10:58:25.111776Z",
      "apogee_km": 540.556778221091,
      "perigee_km": 538.9389616654071,
      "latitude_deg": 8.661842099140472e-06,
      "longitude_deg": 116.06465625861165,
      "height_km": 540.6904476227462,
      "semi_major_axis_km": 6917.884869943249,
      "eccentricity": 0.00011693,
      "inclination_deg": 53.216,
      "raan_deg": 113.4462,
      "arg_perigee_deg": 93.3138,
      "mean_anomaly_deg": 266.7988,
      "mean_motion_rev_day": 15.08838534
    },
    {
      "epoch": "2026-04-05T10:49:12.433440Z",
      "apogee_km": 540.5672015122354,
      "perigee_km": 538.9406669957734,
      "latitude_deg": 1.54775575713316e-05,
      "longitude_deg": 112.92824634150159,
      "height_km": 540.6595888936847,
      "semi_major_axis_km": 6917.890934254004,
      "eccentricity": 0.00011756,
      "inclination_deg": 53.2152,
      "raan_deg": 108.9863,
      "arg_perigee_deg": 90.6998,
      "mean_anomaly_deg": 269.4129,
      "mean_motion_rev_day": 15.0883655
    },
    {
      "epoch": "2026-04-06T01:07:40.624608Z",
      "apogee_km": 540.559654131428,
      "perigee_km": 538.9623114871974,
      "latitude_deg": -3.215488203228386e-05,
      "longitude_deg": -104.95345511184172,
      "height_km": 540.6573168907751,
      "semi_major_axis_km": 6917.897982809312,
      "eccentricity": 0.00011545,
      "inclination_deg": 53.2154,
      "raan_deg": 106.3097,
      "arg_perigee_deg": 90.0399,
      "mean_anomaly_deg": 270.0725,
      "mean_motion_rev_day": 15.08834244
    },
    {
      "epoch": "2026-04-07T04:09:13.819968Z",
      "apogee_km": 540.5781160948582,
      "perigee_km": 538.9192071132056,
      "latitude_deg": -3.9078852429067296e-05,
      "longitude_deg": -156.50689089610614,
      "height_km": 540.6289719043984,
      "semi_major_axis_km": 6917.885661604031,
      "eccentricity": 0.0001199,
      "inclination_deg": 53.2164,
      "raan_deg": 101.2545,
      "arg_perigee_deg": 88.9281,
      "mean_anomaly_deg": 271.1848,
      "mean_motion_rev_day": 15.08838275
    },
    {
      "epoch": "2026-04-08T08:46:10.671456Z",
      "apogee_km": 540.5785724590714,
      "perigee_km": 538.9257503806248,
      "latitude_deg": 6.259233875521073e-06,
      "longitude_deg": 127.72914924049162,
      "height_km": 540.6204084301528,
      "semi_major_axis_km": 6917.889161419847,
      "eccentricity": 0.00011946,
      "inclination_deg": 53.2162,
      "raan_deg": 95.9026,
      "arg_perigee_deg": 88.089,
      "mean_anomaly_deg": 272.0239,
      "mean_motion_rev_day": 15.0883713
    },
    {
      "epoch": "2026-04-09T07:01:34.544352Z",
      "apogee_km": 540.5825074508912,
      "perigee_km": 538.909209945029,
      "latitude_deg": 2.8501016990021993e-05,
      "longitude_deg": 148.80254519651498,
      "height_km": 540.6188048882289,
      "semi_major_axis_km": 6917.88285869796,
      "eccentricity": 0.00012094,
      "inclination_deg": 53.2163,
      "raan_deg": 91.7395,
      "arg_perigee_deg": 88.4352,
      "mean_anomaly_deg": 271.6779,
      "mean_motion_rev_day": 15.08839192
    },
    {
      "epoch": "2026-04-10T05:16:58.679040Z",
      "apogee_km": 540.6153999612579,
      "perigee_km": 538.893813456013,
      "latitude_deg": -2.4013393322884782e-05,
      "longitude_deg": 169.87449201000834,
      "height_km": 540.5867574055399,
      "semi_major_axis_km": 6917.891606708635,
      "eccentricity": 0.00012443,
      "inclination_deg": 53.2165,
      "raan_deg": 87.5761,
      "arg_perigee_deg": 85.761,
      "mean_anomaly_deg": 274.3524,
      "mean_motion_rev_day": 15.0883633
    },
    {
      "epoch": "2026-04-11T16:15:27.417024Z",
      "apogee_km": 540.6339231737593,
      "perigee_km": 538.8560275060981,
      "latitude_deg": -1.8288052960046923e-05,
      "longitude_deg": -2.7251060616429617,
      "height_km": 540.6037459353986,
      "semi_major_axis_km": 6917.881975339928,
      "eccentricity": 0.0001285,
      "inclination_deg": 53.216,
      "raan_deg": 81.0326,
      "arg_perigee_deg": 87.6213,
      "mean_anomaly_deg": 272.4926,
      "mean_motion_rev_day": 15.08839481
    },
    {
      "epoch": "2026-04-13T04:49:19.706592Z",
      "apogee_km": 540.6905665955464,
      "perigee_km": 538.8021228001098,
      "latitude_deg": -2.3871562987322535e-05,
      "longitude_deg": 160.4661640151798,
      "height_km": 540.5927056512821,
      "semi_major_axis_km": 6917.883344697828,
      "eccentricity": 0.00013649,
      "inclination_deg": 53.2162,
      "raan_deg": 74.1934,
      "arg_perigee_deg": 87.0121,
      "mean_anomaly_deg": 273.1027,
      "mean_motion_rev_day": 15.08839033
    },
    {
      "epoch": "2026-04-14T14:12:25.718112Z",
      "apogee_km": 540.6525875335692,
      "perigee_km": 538.8539360655022,
      "latitude_deg": 5.687978460160475e-05,
      "longitude_deg": 12.075004059371953,
      "height_km": 540.557719750532,
      "semi_major_axis_km": 6917.890261799535,
      "eccentricity": 0.00013,
      "inclination_deg": 53.2164,
      "raan_deg": 67.9483,
      "arg_perigee_deg": 84.178,
      "mean_anomaly_deg": 275.9361,
      "mean_motion_rev_day": 15.0883677
    },
    {
      "epoch": "2026-04-15T14:03:13.044096Z",
      "apogee_km": 540.7380469572036,
      "perigee_km": 538.7747488108835,
      "latitude_deg": 3.583868247975381e-05,
      "longitude_deg": 8.939558489738845,
      "height_km": 540.60707580633,
      "semi_major_axis_km": 6917.893397884043,
      "eccentricity": 0.0001419,
      "inclination_deg": 53.2176,
      "raan_deg": 63.4894,
      "arg_perigee_deg": 87.3747,
      "mean_anomaly_deg": 272.7408,
      "mean_motion_rev_day": 15.08835744
    },
    {
      "epoch": "2026-04-16T20:15:33.147360Z",
      "apogee_km": 540.6001386879152,
      "perigee_km": 538.9550585963589,
      "latitude_deg": -5.847725448887681e-06,
      "longitude_deg": -91.03773294474303,
      "height_km": 540.5617209648675,
      "semi_major_axis_km": 6917.914598642137,
      "eccentricity": 0.0001189,
      "inclination_deg": 53.2165,
      "raan_deg": 57.8364,
      "arg_perigee_deg": 82.1926,
      "mean_anomaly_deg": 277.9201,
      "mean_motion_rev_day": 15.08828808
    },
    {
      "epoch": "2026-04-17T20:06:20.328192Z",
      "apogee_km": 540.6974916493928,
      "perigee_km": 538.8349153908766,
      "latitude_deg": -2.7161521522478424e-05,
      "longitude_deg": -94.17407278231957,
      "height_km": 540.6362173706408,
      "semi_major_axis_km": 6917.903203520134,
      "eccentricity": 0.00013462,
      "inclination_deg": 53.2183,
      "raan_deg": 53.376,
      "arg_perigee_deg": 88.4119,
      "mean_anomaly_deg": 271.7027,
      "mean_motion_rev_day": 15.08832536
    },
    {
      "epoch": "2026-04-18T13:35:34.033632Z",
      "apogee_km": 541.2741345455524,
      "perigee_km": 538.123752056973,
      "latitude_deg": 3.5263129955812764e-05,
      "longitude_deg": -0.4680035236372997,
      "height_km": 539.76268282496,
      "semi_major_axis_km": 6917.835943301263,
      "eccentricity": 0.0002277,
      "inclination_deg": 53.2181,
      "raan_deg": 50.1073,
      "arg_perigee_deg": 58.1494,
      "mean_anomaly_deg": 301.972,
      "mean_motion_rev_day": 15.08854541
    }
  ]
}